NUSAT-1 (FRESCO)        
1 41557U 16033B   22160.48596220  .00008112  00000+0  24454-3 0  9995
2 41557  97.3874 258.1694 0011690  53.0651   9.9142 15.34510084336169
BEESAT-4                
1 41619U 16040W   22160.40306269  .00009648  00000+0  32495-3 0  9995
2 41619  97.2175 211.2483 0011163 139.7211 220.4859 15.30900084319497
CAS-2T & KS-1Q          
1 41847U 16066G   22160.41344871  .00000406  00000+0  71791-4 0  9994
2 41847  98.5512 225.0925 0362909 233.8236 122.8878 14.38570243293194
NAYIF-1 (EO-88)         
1 42017U 17008BX  22160.15232315  .00010391  00000+0  31435-3 0  9995
2 42017  97.2693 226.3877 0003378 264.8244  95.2613 15.34376816295802
ZHUHAI-1 02 (CAS-4B)    
1 42759U 17034B   22160.57395321  .00002503  00000+0  15664-3 0  9992
2 42759  43.0192  16.1317 0009909 245.9599 153.7988 15.11845541275164
ZHUHAI-1 01 (CAS-4A)    
1 42761U 17034D   22160.60885281  .00002112  00000+0  13385-3 0  9992
2 42761  43.0190  14.7297 0010278 248.4026 144.0927 15.11934954275174
MAX VALIER SAT          
1 42778U 17036P   22160.52505293  .00005942  00000+0  22746-3 0  9990
2 42778  97.2058 201.8987 0010450   5.7995 354.3364 15.26871782275695
RADFXSAT (FOX-1B)       
1 43017U 17073E   22160.13083500  .00001578  00000+0  12379-3 0  9999
2 43017  97.6764  54.6646 0247890 214.8366 143.6406 14.81350536245884
FOX-1D (AO-92)          
1 43137U 18004AC  22160.17831515  .00006520  00000+0  23223-3 0  9990
2 43137  97.3687 235.4096 0008285  43.1628 317.0260 15.29243710245088
DIWATA-2B               
1 43678U 18084H   22160.40253561  .00000787  00000+0  83072-4 0  9991
2 43678  97.9693 293.5734 0008876 318.4654  41.5895 14.92159888196650
ES'HAIL 2               
1 43700U 18090A   22160.54588736  .00000159  00000+0  00000+0 0  9992
2 43700   0.0181  16.0107 0001354  72.8231  31.3761  1.00271073 12956
FOX-1CLIFF (AO-95)      
1 43770U 18099N   22160.43240587  .00001019  00000+0  94857-4 0  9999
2 43770  97.6210 226.9907 0012922 305.8230  54.1790 14.96398403191813
ITASAT 1                
1 43786U 18099AE  22160.15903480  .00000840  00000+0  78808-4 0  9992
2 43786  97.6239 227.6384 0013428 299.3355  60.6525 14.96552055191818
JY1SAT (JO-97)          
1 43803U 18099AX  22160.44689369  .00001538  00000+0  13835-3 0  9994
2 43803  97.6193 227.6719 0013389 295.7398  64.2441 14.97031785191878
UWE-4                   
1 43880U 18111E   22160.18525267  .00001204  00000+0  10648-3 0  9990
2 43880  97.6693  66.6412 0012116 355.6607   4.4508 14.98111860188460
NEXUS (FO-99)           
1 43937U 19003F   22160.52009951  .00008132  00000+0  27644-3 0  9990
2 43937  97.1311 194.1808 0021212 176.7109 183.4276 15.30488065188761
PSAT2 (NO-104)          
1 44354U 19036R   22160.55561301  .00056903 -57584-5  51491-3 0  9997
2 44354  28.5261 233.0766 0233398 241.4333 116.2592 15.38743476163465
JAISAT-1                
1 44419U 19038F   22160.39092963  .00005284  00000+0  26806-3 0  9998
2 44419  97.6349 130.4502 0020245 154.0059 206.2195 15.17195632161838
DUCHIFAT-3              
1 44854U 19089C   22160.35052694  .00001714  00000+0  13775-3 0  9995
2 44854  36.9651 148.3796 0007150 162.5228 337.8198 15.01021528136716
CAS-6 (TO-108)          
1 44881U 19093C   22160.54246156  .00000317  00000+0  46864-4 0  9993
2 44881  97.8920 239.8641 0014257 207.4327 152.6136 14.81718486133604
RS-44 & BREEZE-KM R/B   
1 44909U 19096E   22160.45088444 -.00000002  00000+0 -47930-4 0  9999
2 44909  82.5223 235.5904 0216863 338.7416  20.4776 12.79713286114486
ORBITAL FACTORY 2 (OF-2)
1 45113U 19071C   22160.54267546  .00017345  00000+0  36883-3 0  9992
2 45113  51.6383  98.2774 0010388 134.3111 225.8729 15.45027442132154
HUSKYSAT-1 (HO-107)     
1 45119U 19071J   22160.54386071  .00014839  00000+0  32641-3 0  9996
2 45119  51.6382  98.2609 0010194 131.2995 228.8870 15.44156783132146
BY70-2                  
1 45857U 20042B   22160.58239958  .00004126  00000+0  55547-3 0  9998
2 45857  97.9537 237.4964 0012120 138.1016 222.1127 14.79697971104295
SALSAT                  
1 46495U 20068K   22160.58113847  .00001954  00000+0  14382-3 0  9991
2 46495  97.7298 101.8785 0015301 307.6328  52.3509 15.04480680 93003
BY70-3                  
1 46839U 20079N   22160.52687822  .00014206  00000+0  33879-3 0  9994
2 46839  97.1973 232.7249 0004771  18.9308  92.1410 15.41653559 89025
RADFXSAT-2 (AO-109)     
1 47311U 21002C   22160.20857980  .00005034  00000+0  20956-3 0  9997
2 47311  60.6865  33.2815 0014662 326.0875  33.9275 15.25168618 77209
UVSQ-SAT                
1 47438U 21006AB  22160.42363043  .00003724  00000+0  19934-3 0  9995
2 47438  97.4376 219.5988 0010327 306.7548  53.2736 15.15603895 76060
DIY-1 (ARDUIQUBE)       
1 47963U 21022AH  22160.47785992  .00010211  00000+0  57581-3 0  9991
2 47963  97.5330  61.9307 0017919 152.7944 207.4230 15.13232282 65742
XW-3 (CAS-9)            
1 50466U 21131B   22160.52085210  .00000056  00000+0  32790-4 0  9998
2 50466  98.5804 237.7782 0005204 158.8910 201.2492 14.38497352 23771
TEVEL-3                 
1 50988U 22002E   22160.43040715  .00004525  00000+0  25041-3 0  9991
2 50988  97.4807 227.5465 0011324  94.2489 321.2760 15.14298883 22201
TEVEL-8                 
1 50989U 22002F   22160.43555878  .00004609  00000+0  25535-3 0  9994
2 50989  97.4821 227.5679 0011350  93.4090 323.8316 15.14247980 22200
TEVEL-5                 
1 50998U 22002Q   22160.44581304  .00004638  00000+0  25309-3 0  9999
2 50998  97.4802 227.6454 0012825  90.1301 282.3788 15.14769133 22210
TEVEL-6                 
1 50999U 22002R   22160.52882456  .00004693  00000+0  25604-3 0  9990
2 50999  97.4789 227.7248 0012662  89.8519  16.7854 15.14774250 22222
TEVEL-1                 
1 51013U 22002AF  22160.43304461  .00004569  00000+0  25297-3 0  9993
2 51013  97.4807 227.5346 0011132  93.7987 324.7869 15.14275612 22206
TEVEL-7                 
1 51062U 22002CG  22160.57880538  .00004647  00000+0  25746-3 0  9992
2 51062  97.4813 227.6985 0011288  92.5401  18.3114 15.14239505 22229
TEVEL-4                 
1 51063U 22002CH  22160.57902442  .00004649  00000+0  25766-3 0  9996
2 51063  97.4816 227.6958 0011237  92.2643  17.4492 15.14232311 22229
TEVEL-2                 
1 51069U 22002CP  22160.43127694  .00004530  00000+0  25074-3 0  9996
2 51069  97.4797 227.5368 0011194  94.1402 320.8981 15.14291113 22200
